COSMOS 2361 [-]         
1 25590U 98076A   22319.50099200  .00000085  00000+0  75022-4 0  9995
2 25590  82.9325  94.5108 0032261 146.8427 282.4669 13.73034122196969
COSMOS 2378 [-]         
1 26818U 01023A   22312.03256535  .00000049  00000+0  35534-4 0  9996
2 26818  82.9242 117.8172 0034174 114.3628  19.9842 13.73978759 74020
COSMOS 2389 [-]         
1 27436U 02026A   22319.56496462  .00000070  00000+0  57663-4 0  9998
2 27436  82.9531  58.1783 0045346 315.2258  55.6244 13.74986977 27132
COSMOS 2398 [-]         
1 27818U 03023A   22319.59189656  .00000061  00000+0  49958-4 0  9995
2 27818  82.9515  20.2488 0031090 354.7200 116.3860 13.72222421974119
COSMOS 2407 [+]         
1 28380U 04028A   22319.40255836  .00000080  00000+0  66202-4 0  9992
2 28380  82.9588 324.6755 0038437 317.2555 159.8726 13.76126542919912
COSMOS 2414 [+]         
1 28521U 05002A   22319.52534527  .00000060  00000+0  36762-4 0  9998
2 28521  82.9470 314.0150 0041736 102.9480 257.6349 13.87673341902199
COSMOS 2429 [-]         
1 32052U 07038A   22319.44384696  .00000074  00000+0  62187-4 0  9999
2 32052  82.9793  91.0674 0037218 293.3674  66.3569 13.74975118761650
COSMOS 2454 [-]         
1 35635U 09039A   22319.52138841  .00000060  00000+0  35700-4 0  9996
2 35635  82.9533 300.0797 0020418  49.1859  73.8417 13.89701166675483
COSMOS 2463 [+]         
1 36519U 10017A   22319.59836450  .00000059  00000+0  48623-4 0  9990
2 36519  82.9574 131.8067 0036587 161.7794 266.4967 13.71485084628503
